COMMENT,ORIGINATOR,NORAD_CAT_ID,OBJECT_NAME,OBJECT_TYPE,CLASSIFICATION_TYPE,INTLDES,EPOCH,EPOCH_MICROSECONDS,MEAN_MOTION,ECCENTRICITY,INCLINATION,RA_OF_ASC_NODE,ARG_OF_PERICENTER,MEAN_ANOMALY,EPHEMERIS_TYPE,ELEMENT_SET_NO,REV_AT_EPOCH,BSTAR,MEAN_MOTION_DOT,MEAN_MOTION_DDOT,FILE,TLE_LINE0,TLE_LINE1,TLE_LINE2,OBJECT_ID,OBJECT_NUMBER,SEMIMAJOR_AXIS,PERIOD,APOGEE,PERIGEE
"GENERATED VIA SPACETRACK.ORG API","JSPOC","40934","LEMUR 2 JEROEN","PAYLOAD","U","15052E","2016-01-08 07:50:28","51584","14.76236967","0.0011923","6.0115","22.2087","358.2986","1.7253","0","999","1508","0.00012648","1.535e-05","0","1977620","0 LEMUR 2 JEROEN","1 40934U 15052E   16008.32671356  .00001535  00000-0  12648-3 0  9999","2 40934   6.0115  22.2087 0011923 358.2986   1.7253 14.76236967 15086","2015-052E","40934","7019.364","97.545","649.598","632.860"
"GENERATED VIA SPACETRACK.ORG API","JSPOC","24728","GONETS D1 4","PAYLOAD","U","97006D","2016-01-08 07:50:34","74528","12.63835153","0.0007635","82.6035","147.6756","196.3992","163.6865","0","999","87179","-0.00012738","-1.3e-07","0","1977613","0 GONETS D1 4","1 24728U 97006D   16008.32678327 -.00000013  00000-0 -12738-3 0  9998","2 24728  82.6035 147.6756 0007635 196.3992 163.6865 12.63835153871799","1997-006D","24728","7785.291","113.938","1413.100","1401.212"
"GENERATED VIA SPACETRACK.ORG API","JSPOC","23426","LUCH","PAYLOAD","U","94082A","2016-01-08 07:51:48","661056","1.00269045","0.0004473","13.9099","29.055","141.3746","235.0037","0","999","7702","0","3.3e-07","0","1978186","0 LUCH","1 23426U 94082A   16008.32764654 +.00000033 +00000-0 +00000-0 0  9998","2 23426 013.9099 029.0550 0004473 141.3746 235.0037 01.00269045077028","1994-082A","23426","42165.500","1436.136","35806.225","35768.504"
"GENERATED VIA SPACETRACK.ORG API","JSPOC","3345","ESSA 7 (TOS-E)","PAYLOAD","U","68069A","2016-01-08 07:52:04","276992","12.5296974","0.0026782","101.5854","60.1308","52.9141","57.1729","0","999","16788","7.8152e-05","-3.1e-07","0","1977705","0 ESSA 7 (TOS-E)","1 03345U 68069A   16008.32782728 -.00000031  00000-0  78152-4 0  9990","2 03345 101.5854  60.1308 0026782  52.9141  57.1729 12.52969740167882","1968-069A","3345","7830.234","114.926","1473.070","1431.128"
"GENERATED VIA SPACETRACK.ORG API","JSPOC","11134","COSMOS 1057","PAYLOAD","U","78109G","2016-01-08 07:53:16","204992","12.42081755","0.0022102","74.0154","246.056","348.9346","57.8004","0","999","68202","0.00020165","1.2e-07","0","1977658","0 COSMOS 1057","1 11134U 78109G   16008.32865978  .00000012  00000-0  20165-3 0  9998","2 11134  74.0154 246.0560 0022102 348.9346  57.8004 12.42081755682027","1978-109G","11134","7875.927","115.934","1515.200","1480.385"
"GENERATED VIA SPACETRACK.ORG API","JSPOC","33472","SL-12 R/B(AUX MOTOR)","ROCKET BODY","U","08067G","2016-01-08 07:53:39","582240","4.23967396","0.5610622","65.3415","83.617","70.3134","340.1525","0","999","10741","-8.7703e-05","-4e-07","0","1978186","0 SL-12 R/B(AUX MOTOR)","1 33472U 08067G   16008.32893035 -.00000040 +00000-0 -87703-4 0  9993","2 33472 065.3415 083.6170 5610622 070.3134 340.1525 04.23967396107412","2008-067G","33472","16125.512","339.648","18794.793","699.962"
"GENERATED VIA SPACETRACK.ORG API","JSPOC","28983","PEGASUS R/B","ROCKET BODY","U","06008D","2016-01-08 07:54:47","204928","11.22110361","0.2076216","105.5381","136.9554","151.1347","222.2466","0","999","38484","0.00070468","0.00015007","2.1013e-06","1977645","0 PEGASUS R/B","1 28983U 06008D   16008.32971302  .00015007  21013-5  70468-3 0  9999","2 28983 105.5381 136.9554 2076216 151.1347 222.2466 11.22110361384843","2006-008D","28983","8427.746","128.329","3799.393","299.829"
"GENERATED VIA SPACETRACK.ORG API","JSPOC","12545","APPLE","PAYLOAD","U","81057B","2016-01-08 07:54:55","437984","1.00050764","0.0023543","14.1748","336.6718","128.4158","300.4672","0","999","8423","0","-5e-08","0","1977608","0 APPLE","1 12545U 81057B   16008.32980831 -.00000005  00000-0  00000+0 0  9992","2 12545  14.1748 336.6718 0023543 128.4158 300.4672  1.00050764 84236","1981-057B","12545","42226.806","1439.269","35948.085","35749.256"
"GENERATED VIA SPACETRACK.ORG API","JSPOC","29000","SCATHA AKM","ROCKET BODY","U","79007C","2016-01-08 07:55:11","509248","1.01585603","0.1773171","17.5914","334.812","8.5758","50.5167","0","999","921","0","-1e-08","0","1978186","0 SCATHA AKM","1 29000U 79007C   16008.32999432 -.00000001 +00000-0 +00000-0 0  9992","2 29000 017.5914 334.8120 1773171 008.5758 050.5167 01.01585603009216","1979-007C","29000","41800.396","1417.523","42834.186","28010.336"
"GENERATED VIA SPACETRACK.ORG API","JSPOC","27055","COSMOS 2384","PAYLOAD","U","01058A","2016-01-08 07:55:30","302112","12.59813809","0.0009355","82.5448","146.0569","198.8009","161.2743","0","999","64520","-0.00013911","-1.4e-07","0","1977608","0 COSMOS 2384","1 27055U 01058A   16008.33021183 -.00000014  00000-0 -13911-3 0  9994","2 27055  82.5448 146.0569 0009355 198.8009 161.2743 12.59813809645207","2001-058A","27055","7801.850","114.302","1431.013","1416.416"
"GENERATED VIA SPACETRACK.ORG API","JSPOC","25290","IRIDIUM 67","PAYLOAD","U","98021F","2016-01-08 07:55:35","514624","14.34214416","0.0002107","86.3966","83.7489","97.3397","262.8038","0","999","92965","7.8012e-05","2.38e-06","0","1977719","0 IRIDIUM 67","1 25290U 98021F   16008.33027216  .00000238  00000-0  78012-4 0  9992","2 25290  86.3966  83.7489 0002107  97.3397 262.8038 14.34214416929655","1998-021F","25290","7155.815","100.403","779.187","776.172"
"GENERATED VIA SPACETRACK.ORG API","JSPOC","20570","NEWSAT-1 (PALAPA B2R)","PAYLOAD","U","90034A","2016-01-08 07:55:45","75648","0.99533839","0.0006372","12.6399","35.3706","51.6361","305.4302","0","999","838","0","-2.07e-06","0","1978186","0 NEWSAT-1 (PALAPA B2R)","1 20570U 90034A   16008.33038282 -.00000207 +00000-0 +00000-0 0  9994","2 20570 012.6399 035.3706 0006372 051.6361 305.4302 00.99533839008385","1990-034A","20570","42372.882","1446.744","36021.747","35967.747"
"GENERATED VIA SPACETRACK.ORG API","JSPOC","23845","SL-12 R/B(2)","ROCKET BODY","U","96021D","2016-01-08 07:56:16","819008","1.643425","0.4033641","7.2555","88.0137","186.0441","259.0389","0","999","11853","0","-1.08e-06","0","1978186","0 SL-12 R/B(2)","1 23845U 96021D   16008.33075022 -.00000108 +00000-0 +00000-0 0  9997","2 23845 007.2555 088.0137 4033641 186.0441 259.0389 01.64342500118539","1996-021D","23845","30332.060","876.218","36188.789","11719.061"
"GENERATED VIA SPACETRACK.ORG API","JSPOC","20528","SL-8 R/B","ROCKET BODY","U","90023B","2016-01-08 07:56:34","810080","13.72812301","0.0032784","82.9362","91.9055","48.882","15.4427","0","999","29288","1.8828e-05","3.3e-07","0","1977613","0 SL-8 R/B","1 20528U 90023B   16008.33095845  .00000033  00000-0  18828-4 0  9990","2 20528  82.9362  91.9055 0032784  48.8820  15.4427 13.72812301292882","1990-023B","20528","7367.628","104.894","1013.647","965.339"
"GENERATED VIA SPACETRACK.ORG API","JSPOC","5239","SL-8 R/B","ROCKET BODY","U","71046B","2016-01-08 07:56:46","374720","13.73832107","0.0011385","74.0247","285.5637","328.2215","171.012","0","999","23738","3.2705e-05","8e-08","0","1977702","0 SL-8 R/B","1 05239U 71046B   16008.33109230  .00000008  00000-0  32705-4 0  9992","2 05239  74.0247 285.5637 0011385 328.2215 171.0120 13.73832107237382","1971-046B","5239","7363.982","104.816","994.231","977.463"
"GENERATED VIA SPACETRACK.ORG API","JSPOC","26959","BIRD 2","PAYLOAD","U","01049C","2016-01-08 07:56:52","834848","15.31091095","0.0012246","97.762","283.1293","81.0864","279.1762","0","999","78576","0.00012954","3.814e-05","0","1977633","0 BIRD 2","1 26959U 01049C   16008.33116707  .00003814  00000-0  12954-3 0  9998","2 26959  97.7620 283.1293 0012246  81.0864 279.1762 15.31091095785765","2001-049C","26959","6850.692","94.050","480.947","464.168"
"GENERATED VIA SPACETRACK.ORG API","JSPOC","37234","CHINASAT 20A","PAYLOAD","U","10064A","2016-01-08 07:57:11","490336","1.00274173","0.0004146","0.0398","116.3914","199.9756","40.2721","0","999","1879","0","-3.29e-06","0","1977704","0 CHINASAT 20A","1 37234U 10064A   16008.33138299 -.00000329  00000-0  00000+0 0  9997","2 37234   0.0398 116.3914 0004146 199.9756  40.2721  1.00274173 18793","2010-064A","37234","42164.062","1436.062","35803.408","35768.446"
"GENERATED VIA SPACETRACK.ORG API","JSPOC","40054","AISAT","PAYLOAD","U","14034B","2016-01-08 07:57:13","630464","14.7614304","0.0012058","98.2037","94.2296","290.536","69.4554","0","999","8211","0.00017133","1.131e-05","0","1977677","0 AISAT","1 40054U 14034B   16008.33140776  .00001131  00000-0  17133-3 0  9995","2 40054  98.2037  94.2296 0012058 290.5360  69.4554 14.76143040 82112","2014-034B","40054","7019.662","97.551","649.991","633.062"
"GENERATED VIA SPACETRACK.ORG API","JSPOC","28998","BREEZE-M R/B","ROCKET BODY","U","03024C","2016-01-08 07:59:40","214112","1.82403719","0.5136367","17.0244","145.3826","106.8804","140.1692","0","999","1661","0","-2.4e-07","0","1978186","0 BREEZE-M R/B","1 28998U 03024C   16008.33310433 -.00000024 +00000-0 +00000-0 0  9997","2 28998 017.0244 145.3826 5136367 106.8804 140.1692 01.82403719016615","2003-024C","28998","28295.196","789.457","36450.512","7383.610"
"GENERATED VIA SPACETRACK.ORG API","JSPOC","20452","NAVSTAR 18 (USA 50)","PAYLOAD","U","90008A","2016-01-08 08:00:22","867200","1.89597359","0.0012738","55.2846","267.4415","235.4396","308.6999","0","999","18395","0","2.1e-07","0","1977717","0 NAVSTAR 18 (USA 50)","1 20452U 90008A   16008.33359800  .00000021  00000-0  00000+0 0  9998","2 20452  55.2846 267.4415 0012738 235.4396 308.6999  1.89597359183953","1990-008A","20452","27574.881","759.504","21231.871","21161.621"
